ONEWEB-0504             
1 54122U 22138K   25057.37789061  .00000077  00000+0  16093-3 0  9995
2 54122  87.9175  39.5304 0001994  95.8125 264.3235 13.19723495114072
ONEWEB-0505             
1 54123U 22138L   25057.45054975 -.00000388  00000+0 -10020-2 0  9994
2 54123  87.9171  39.5074 0002398  97.7516 262.3889 13.19725196114069
ONEWEB-0506             
1 54124U 22138M   25057.50108582  .00000082  00000+0  17248-3 0  9994
2 54124  87.9174  39.4941 0002037  89.4668 270.6698 13.19723411114069
ONEWEB-0507             
1 54125U 22138N   25057.44581792  .00000063  00000+0  12419-3 0  9990
2 54125  87.9181  39.5480 0002113  87.4207 272.7167 13.19725041114109
ONEWEB-0508             
1 54126U 22138P   25057.44265011  .00000178  00000+0  41321-3 0  9995
2 54126  87.9178  39.5349 0002334  88.0573 272.0827 13.19723407114085
ONEWEB-0509             
1 54127U 22138Q   25057.49319617  .00000041  00000+0  69012-4 0  9990
2 54127  87.9171  39.4945 0001990  88.0372 272.0989 13.19724513114060
ONEWEB-0510             
1 54128U 22138R   25057.60611946  .00000013  00000+0  77348-6 0  9996
2 54128  87.9314   9.0680 0001843  73.1597 286.9738 13.20770303116507
ONEWEB-0511             
1 54129U 22138S   25057.49004007  .00000033  00000+0  50614-4 0  9995
2 54129  87.9173  39.5000 0001741  96.4040 263.7291 13.19724824114097
